IRIDIUM 126             
1 42809U 17039G   23357.43697784  .00000119  00000+0  35448-4 0  9999
2 42809  86.3971  12.5802 0002434  94.4315 265.7159 14.34217927339983
IRIDIUM 124             
1 42810U 17039H   23357.89830550  .00000819  00000+0  23757-3 0  9997
2 42810  86.4487 309.1413 0002217  81.1685 278.9767 14.43286532344393
IRIDIUM 128             
1 42811U 17039J   23358.12539976  .00000105  00000+0  30368-4 0  9998
2 42811  86.3968  43.8095 0002220  93.0041 267.1409 14.34217583340116
IRIDIUM 121             
1 42812U 17039K   23357.59554101  .00000508  00000+0  17433-3 0  9990
2 42812  86.3965  12.5368 0002150  96.4537 263.6904 14.34216798339889
IRIDIUM 133             
1 42955U 17061A   23357.66873371  .00000471  00000+0  16095-3 0  9996
2 42955  86.3969  44.0958 0002289  96.7210 263.4246 14.34220151324845
IRIDIUM 100             
1 42956U 17061B   23357.52285060  .00000460  00000+0  15725-3 0  9991
2 42956  86.3967  44.0968 0002270  92.2933 267.8523 14.34219131324828
IRIDIUM 122             
1 42957U 17061C   23357.63067702  .00000651  00000+0  22536-3 0  9995
2 42957  86.3968  44.0495 0002319  90.9887 269.1574 14.34216738324845
IRIDIUM 129             
1 42958U 17061D   23358.14442928  .00000492  00000+0  16855-3 0  9990
2 42958  86.3967  43.8922 0002318  91.9401 268.2060 14.34218083324934
